{
    "links": {
        "self": "http://www.neowsapp.com/rest/v1/neo/54049930?api_key=iIulBulltgU6a56xZRHN4H3l9WmuAYTsLGpBGhQ2"
    },
    "id": "54049930",
    "neo_reference_id": "54049930",
    "name": "(2014 JP34)",
    "designation": "2014 JP34",
    "nasa_jpl_url": "http://ssd.jpl.nasa.gov/sbdb.cgi?sstr=54049930",
    "absolute_magnitude_h": 19.456,
    "estimated_diameter": {
        "kilometers": {
            "estimated_diameter_min": 0.3414719044,
            "estimated_diameter_max": 0.7635543906
        },
        "meters": {
            "estimated_diameter_min": 341.4719043751,
            "estimated_diameter_max": 763.5543905891
        },
        "miles": {
            "estimated_diameter_min": 0.2121807387,
            "estimated_diameter_max": 0.4744505552
        },
        "feet": {
            "estimated_diameter_min": 1120.3146827501,
            "estimated_diameter_max": 2505.0997868203
        }
    },
    "is_potentially_hazardous_asteroid": false,
    "close_approach_data": [
        {
            "close_approach_date": "2014-08-10",
            "close_approach_date_full": "2014-Aug-10 21:51",
            "epoch_date_close_approach": 1407707460000,
            "relative_velocity": {
                "kilometers_per_second": "9.6772383889",
                "kilometers_per_hour": "34838.0582001492",
                "miles_per_hour": "21647.0145521983"
            },
            "miss_distance": {
                "astronomical": "0.4434517201",
                "lunar": "172.5027191189",
                "kilometers": "66339432.774796187",
                "miles": "41221412.0639819006"
            },
            "orbiting_body": "Earth"
        },
        {
            "close_approach_date": "2098-03-11",
            "close_approach_date_full": "2098-Mar-11 22:59",
            "epoch_date_close_approach": 4045417140000,
            "relative_velocity": {
                "kilometers_per_second": "10.6568656731",
                "kilometers_per_hour": "38364.7164231334",
                "miles_per_hour": "23838.3428241408"
            },
            "miss_distance": {
                "astronomical": "1.6280983092",
                "lunar": "633.3302422788",
                "kilometers": "243560039.206921404",
                "miles": "151341190.5789232152"
            },
            "orbiting_body": "Juptr"
        }
    ],
    "orbital_data": {
        "orbit_id": "1",
        "orbit_determination_date": "2020-11-11 12:31:38",
        "first_observation_date": "2014-05-04",
        "last_observation_date": "2014-06-18",
        "data_arc_in_days": 45,
        "observations_used": 9,
        "orbit_uncertainty": "7",
        "minimum_orbit_intersection": ".21939",
        "jupiter_tisserand_invariant": "2.790",
        "epoch_osculation": "2459000.5",
        "eccentricity": ".63307523705353",
        "semi_major_axis": "3.362237819472804",
        "inclination": "3.076905517997049",
        "ascending_node_longitude": "125.6999868543327",
        "orbital_period": "2251.858359863273",
        "perihelion_distance": "1.233688314879715",
        "perihelion_argument": "185.1018473247115",
        "aphelion_distance": "5.490787324065892",
        "perihelion_time": "2459145.531733258221",
        "mean_anomaly": "336.8140728104544",
        "mean_motion": ".1598679590229015",
        "equinox": "J2000",
        "orbit_class": {
            "orbit_class_type": "AMO",
            "orbit_class_description": "Near-Earth asteroid orbits similar to that of 1221 Amor",
            "orbit_class_range": "1.017 AU < q (perihelion) < 1.3 AU"
        }
    },
    "is_sentry_object": false
}